[
  {
    "name": "ONEWEB-0294",
    "noradId": "49083",
    "line1": "1 49083U 21075J   26185.86503246 -.00000363  00000+0 -10455-2 0  9995",
    "line2": "2 49083  87.8963 347.1440 0002097 100.1782 259.9583 13.12442746236890"
  },
  {
    "name": "ONEWEB-0295",
    "noradId": "49084",
    "line1": "1 49084U 21075K   26185.95681473 -.00000018  00000+0 -79400-4 0  9999",
    "line2": "2 49084  87.9136   2.3337 0002115  84.7725 275.3648 13.17649416235930"
  },
  {
    "name": "ONEWEB-0296",
    "noradId": "49085",
    "line1": "1 49085U 21075L   26185.84470763  .00000062  00000+0  13674-3 0  9993",
    "line2": "2 49085  87.8966 347.1558 0002167  88.8554 271.2823 13.12440889236892"
  },
  {
    "name": "ONEWEB-0297",
    "noradId": "49086",
    "line1": "1 49086U 21075M   26185.87519704 -.00000094  00000+0 -29713-3 0  9994",
    "line2": "2 49086  87.8951 347.1582 0001890  91.0347 269.0998 13.12443371237508"
  },
  {
    "name": "ONEWEB-0298",
    "noradId": "49087",
    "line1": "1 49087U 21075N   26185.96118203  .00000030  00000+0  44036-4 0  9998",
    "line2": "2 49087  87.9137   2.3310 0001790  87.5942 272.5395 13.17648534235966"
  },
  {
    "name": "ONEWEB-0299",
    "noradId": "49088",
    "line1": "1 49088U 21075P   26185.88677064 -.00000140  00000+0 -39477-3 0  9991",
    "line2": "2 49088  87.9147   2.3278 0001960  85.8246 274.3110 13.17648827235935"
  },
  {
    "name": "ONEWEB-0300",
    "noradId": "49089",
    "line1": "1 49089U 21075Q   26185.86757043 -.00000312  00000+0 -90327-3 0  9998",
    "line2": "2 49089  87.8967 347.1414 0001515  86.3419 273.7883 13.12442488237528"
  },
  {
    "name": "ONEWEB-0301",
    "noradId": "49090",
    "line1": "1 49090U 21075R   26185.85147687 -.00000339  00000+0 -97764-3 0  9997",
    "line2": "2 49090  87.8958 347.1419 0001478  91.4436 268.6862 13.12441442236886"
  },
  {
    "name": "ONEWEB-0302",
    "noradId": "49091",
    "line1": "1 49091U 21075S   26185.83792594  .00000159  00000+0  40549-3 0  9996",
    "line2": "2 49091  87.8963 347.1571 0002104  96.4083 263.7286 13.12441193236869"
  },
  {
    "name": "ONEWEB-0304",
    "noradId": "49092",
    "line1": "1 49092U 21075T   26185.93739386  .00000037  00000+0  62497-4 0  9990",
    "line2": "2 49092  87.9138   2.3385 0001958  86.9990 273.1366 13.17650677235918"
  },
  {
    "name": "ONEWEB-0305",
    "noradId": "49093",
    "line1": "1 49093U 21075U   26185.77877615 -.00000023  00000+0 -93202-4 0  9996",
    "line2": "2 49093  87.9145   2.3559 0002078  80.8920 279.2446 13.17649765235923"
  },
  {
    "name": "ONEWEB-0308",
    "noradId": "49094",
    "line1": "1 49094U 21075V   26185.90738790  .00000376  00000+0  10088-2 0  9990",
    "line2": "2 49094  87.8961 347.1353 0001825  94.6454 265.4883 13.12441304236887"
  },
  {
    "name": "ONEWEB-0309",
    "noradId": "49095",
    "line1": "1 49095U 21075W   26185.93402987  .00000036  00000+0  59566-4 0  9999",
    "line2": "2 49095  87.9137   2.3319 0002285  97.3438 262.7953 13.17649780235913"
  },
  {
    "name": "ONEWEB-0310",
    "noradId": "49096",
    "line1": "1 49096U 21075X   26185.92263450 -.00000056  00000+0 -18977-3 0  9993",
    "line2": "2 49096  87.8952 347.1520 0001823  94.4817 265.6519 13.12441787237518"
  },
  {
    "name": "ONEWEB-0311",
    "noradId": "49097",
    "line1": "1 49097U 21075Y   26185.94076948 -.00000004  00000+0 -43345-4 0  9991",
    "line2": "2 49097  87.9139   2.3305 0001940  77.2050 282.9298 13.17647820235960"
  },
  {
    "name": "ONEWEB-0312",
    "noradId": "49098",
    "line1": "1 49098U 21075Z   26185.95596369 -.00000045  00000+0 -14880-3 0  9993",
    "line2": "2 49098  87.9133   2.3376 0002145  86.5386 273.5991 13.17648254235942"
  },
  {
    "name": "ONEWEB-0313",
    "noradId": "49099",
    "line1": "1 49099U 21075AA  26185.96089137 -.00000026  00000+0 -99449-4 0  9999",
    "line2": "2 49099  87.9132   2.3421 0001927  87.0130 273.1222 13.17649789235939"
  },
  {
    "name": "ONEWEB-0314",
    "noradId": "49100",
    "line1": "1 49100U 21075AB  26185.92728253  .00000033  00000+0  51417-4 0  9996",
    "line2": "2 49100  87.9146   2.3234 0002167  84.6372 275.5007 13.17650594235907"
  },
  {
    "name": "ONEWEB-0315",
    "noradId": "49101",
    "line1": "1 49101U 21075AC  26185.89553233  .00000492  00000+0  13325-2 0  9990",
    "line2": "2 49101  87.8958 347.1231 0001803  82.0029 278.1304 13.12442352237493"
  },
  {
    "name": "ONEWEB-0316",
    "noradId": "49102",
    "line1": "1 49102U 21075AD  26185.68628464  .00000144  00000+0  33279-3 0  9992",
    "line2": "2 49102  87.9184 331.9750 0001913  96.9767 263.1583 13.18686653239516"
  },
  {
    "name": "ONEWEB-0317",
    "noradId": "49103",
    "line1": "1 49103U 21075AE  26185.89892126  .00000498  00000+0  13492-2 0  9990",
    "line2": "2 49103  87.8963 347.1466 0002172 112.2568 247.8791 13.12442438237516"
  },
  {
    "name": "ONEWEB-0318",
    "noradId": "49104",
    "line1": "1 49104U 21075AF  26185.68291499  .00000092  00000+0  19959-3 0  9999",
    "line2": "2 49104  87.9187 331.9777 0001856  90.5798 269.5547 13.18685737239477"
  },
  {
    "name": "ONEWEB-0319",
    "noradId": "49105",
    "line1": "1 49105U 21075AG  26185.94245968  .00000065  00000+0  13517-3 0  9993",
    "line2": "2 49105  87.9136   2.3351 0001760  73.5109 286.6216 13.17650319235948"
  },
  {
    "name": "ONEWEB-0323",
    "noradId": "49106",
    "line1": "1 49106U 21075AH  26185.88028276  .00000041  00000+0  77878-4 0  9993",
    "line2": "2 49106  87.8962 347.1314 0001930  77.2359 282.8986 13.12443096236873"
  },
  {
    "name": "ONEWEB-0329",
    "noradId": "49107",
    "line1": "1 49107U 21075AJ  26185.72309300  .00000038  00000+0  64984-4 0  9997",
    "line2": "2 49107  87.9136   2.3796 0001989  87.4633 272.6726 13.17650218235895"
  },
  {
    "name": "ONEWEB-0330",
    "noradId": "49108",
    "line1": "1 49108U 21075AK  26185.72888103 -.00010802  00000+0 -27297-1 0  9996",
    "line2": "2 49108  87.9140   2.3913 0002070  91.3930 268.7439 13.19097571235939"
  },
  {
    "name": "ONEWEB-0292",
    "noradId": "49186",
    "line1": "1 49186U 21083A   26185.76257697 -.00000100  00000+0 -30836-3 0  9998",
    "line2": "2 49186  87.8970 316.7390 0001801  94.2174 265.9161 13.13468901233234"
  },
  {
    "name": "ONEWEB-0303",
    "noradId": "49187",
    "line1": "1 49187U 21083B   26185.67953000  .00000061  00000+0  12319-3 0  9990",
    "line2": "2 49187  87.9182 331.9768 0001840  90.6712 269.4631 13.18687751232286"
  },
  {
    "name": "ONEWEB-0306",
    "noradId": "49188",
    "line1": "1 49188U 21083C   26185.82116307 -.00000188  00000+0 -51021-3 0  9994",
    "line2": "2 49188  87.9189 331.9373 0001976 102.2727 257.8626 13.18685200232341"
  },
  {
    "name": "ONEWEB-0307",
    "noradId": "49189",
    "line1": "1 49189U 21083D   26185.60429521  .00000082  00000+0  18939-3 0  9998",
    "line2": "2 49189  87.8973 316.7683 0001912  95.2585 264.8762 13.13470805233214"
  },
  {
    "name": "ONEWEB-0320",
    "noradId": "49190",
    "line1": "1 49190U 21083E   26185.84140452  .00000005  00000+0 -19204-4 0  9992",
    "line2": "2 49190  87.9177 331.9493 0001883  97.6895 262.4451 13.18686365232301"
  },
  {
    "name": "ONEWEB-0321",
    "noradId": "49191",
    "line1": "1 49191U 21083F   26186.23114714  .00000033  00000+0  49413-4 0  9994",
    "line2": "2 49191  87.9192 270.8394 0002132 107.1966 252.9401 13.20773475239212"
  },
  {
    "name": "ONEWEB-0322",
    "noradId": "49192",
    "line1": "1 49192U 21083G   26185.60007433  .00000242  00000+0  62779-3 0  9995",
    "line2": "2 49192  87.8971 316.7691 0001790 112.6192 247.5127 13.13470134233204"
  },
  {
    "name": "ONEWEB-0324",
    "noradId": "49193",
    "line1": "1 49193U 21083H   26185.66268405  .00000094  00000+0  20443-3 0  9997",
    "line2": "2 49193  87.9189 331.9742 0002045  96.0769 264.0596 13.18686526232305"
  },
  {
    "name": "ONEWEB-0325",
    "noradId": "49194",
    "line1": "1 49194U 21083J   26185.66605269  .00000042  00000+0  73455-4 0  9996",
    "line2": "2 49194  87.9180 331.9803 0001771  95.9778 264.1556 13.18686420232319"
  },
  {
    "name": "ONEWEB-0326",
    "noradId": "49195",
    "line1": "1 49195U 21083K   26185.83313047  .00000042  00000+0  74634-4 0  9996",
    "line2": "2 49195  87.9186 331.9462 0001775  88.1637 271.9699 13.18685527232321"
  },
  {
    "name": "ONEWEB-0327",
    "noradId": "49196",
    "line1": "1 49196U 21083L   26185.68109640  .00000022  00000+0  23303-4 0  9997",
    "line2": "2 49196  87.9179 331.9793 0001576  85.5599 274.5713 13.18685993232321"
  },
  {
    "name": "ONEWEB-0328",
    "noradId": "49197",
    "line1": "1 49197U 21083M   26185.66609318  .00000305  00000+0  80137-3 0  9994",
    "line2": "2 49197  87.8980 316.7307 0002014  98.1777 261.9581 13.13469244233192"
  },
  {
    "name": "ONEWEB-0331",
    "noradId": "49198",
    "line1": "1 49198U 21083N   26185.82622116 -.00000213  00000+0 -57343-3 0  9997",
    "line2": "2 49198  87.9189 331.9415 0001856  85.4070 274.7274 13.18684948232333"
  },
  {
    "name": "ONEWEB-0333",
    "noradId": "49199",
    "line1": "1 49199U 21083P   26185.81336893  .00000385  00000+0  10206-2 0  9995",
    "line2": "2 49199  87.8969 316.7260 0001845  98.9793 261.1545 13.13469556233228"
  },
  {
    "name": "ONEWEB-0334",
    "noradId": "49200",
    "line1": "1 49200U 21083Q   26185.63939285  .00000055  00000+0  10402-3 0  9995",
    "line2": "2 49200  87.9190 270.9674 0002057 122.9052 237.2280 13.20774357239097"
  },
  {
    "name": "ONEWEB-0335",
    "noradId": "49201",
    "line1": "1 49201U 21083R   26185.80827588  .00000379  00000+0  10033-2 0  9995",
    "line2": "2 49201  87.8970 316.7244 0001895  93.5713 266.5633 13.13471929233239"
  },
  {
    "name": "ONEWEB-0336",
    "noradId": "49202",
    "line1": "1 49202U 21083S   26185.62715680 -.00000248  00000+0 -71291-3 0  9996",
    "line2": "2 49202  87.8970 316.7558 0001968  90.2855 269.8500 13.13469696233204"
  }
]